start=new Date('2023-04-05T00:00:00.000Z').valueOf();
sats=[{"COUNTRY_CODE":"US","SITE":"AFETR","ELEMENT_SET_NO":"999","OBJECT_TYPE":"PAYLOAD","LAUNCH_DATE":"2022-08-28","REF_FRAME":"TEME","RCS_SIZE":"MEDIUM","TLE_LINE1":"1 53621U 22104AK  23094.89934466  .00004316  00000-0  28909-3 0  9998","PERIOD":"95.437","OBJECT_ID":"2022-104AK","MEAN_MOTION_DDOT":"0.0000000000000","SEMIMAJOR_AXIS":"6917.877","CENTER_NAME":"EARTH","EPOCH":"2023-04-04T21:35:03.378624","ECCENTRICITY":"0.00013540","NORAD_CAT_ID":"53621","RA_OF_ASC_NODE":"356.5569","MEAN_MOTION_DOT":"0.00004316","MEAN_ANOMALY":"248.3432","ARG_OF_PERICENTER":"111.7704","FILE":"3880211","MEAN_MOTION":"15.08841166","APOAPSIS":"540.679","PERIAPSIS":"538.805","OBJECT_NAME":"STARLINK-4608","DECAY_DATE":null,"EPHEMERIS_TYPE":"0","REV_AT_EPOCH":"3413","MEAN_ELEMENT_THEORY":"SGP4","TLE_LINE2":"2 53621  53.2178 356.5569 0001354 111.7704 248.3432 15.08841166 34135","CLASSIFICATION_TYPE":"U","INCLINATION":"53.2178","TIME_SYSTEM":"UTC","GP_ID":"229497992","BSTAR":"0.00028909000000"},{"SEMIMAJOR_AXIS":"6917.888","MEAN_MOTION_DDOT":"0.0000000000000","ECCENTRICITY":"0.00011740","EPOCH":"2023-04-04T21:09:54.266976","CENTER_NAME":"EARTH","NORAD_CAT_ID":"53622","OBJECT_ID":"2022-104AL","LAUNCH_DATE":"2022-08-28","RCS_SIZE":"LARGE","REF_FRAME":"TEME","PERIOD":"95.438","TLE_LINE1":"1 53622U 22104AL  23094.88187809 -.00002252  00000-0 -12346-3 0  9996","COUNTRY_CODE":"US","SITE":"AFETR","OBJECT_TYPE":"PAYLOAD","ELEMENT_SET_NO":"999","TLE_LINE2":"2 53622  53.2177 356.4460 0001174  99.5603 260.5522 15.08837386 34242","MEAN_ELEMENT_THEORY":"SGP4","CLASSIFICATION_TYPE":"U","INCLINATION":"53.2177","TIME_SYSTEM":"UTC","GP_ID":"229497490","BSTAR":"-0.00012346000000","DECAY_DATE":null,"REV_AT_EPOCH":"3424","EPHEMERIS_TYPE":"0","MEAN_MOTION":"15.08837386","APOAPSIS":"540.566","PERIAPSIS":"538.941","OBJECT_NAME":"STARLINK-4568","MEAN_MOTION_DOT":"-0.00002252","RA_OF_ASC_NODE":"356.4460","ARG_OF_PERICENTER":"99.5603","MEAN_ANOMALY":"260.5522","FILE":"3880211"},{"NORAD_CAT_ID":"53623","MEAN_MOTION_DDOT":"0.0000000000000","SEMIMAJOR_AXIS":"6917.892","CENTER_NAME":"EARTH","EPOCH":"2023-04-04T21:24:26.805024","ECCENTRICITY":"0.00015250","OBJECT_ID":"2022-104AM","TLE_LINE1":"1 53623U 22104AM  23094.89197691  .00000645  00000-0  58633-4 0  9990","PERIOD":"95.438","LAUNCH_DATE":"2022-08-28","REF_FRAME":"TEME","RCS_SIZE":"LARGE","SITE":"AFETR","ELEMENT_SET_NO":"999","OBJECT_TYPE":"PAYLOAD","COUNTRY_CODE":"US","GP_ID":"229497240","TIME_SYSTEM":"UTC","BSTAR":"0.00005863300000","TLE_LINE2":"2 53623  53.2195 356.5098 0001525 103.0204 257.0958 15.08836047 34246","MEAN_ELEMENT_THEORY":"SGP4","INCLINATION":"53.2195","CLASSIFICATION_TYPE":"U","EPHEMERIS_TYPE":"0","REV_AT_EPOCH":"3424","DECAY_DATE":null,"APOAPSIS":"540.812","PERIAPSIS":"538.702","OBJECT_NAME":"STARLINK-4573","MEAN_MOTION":"15.08836047","MEAN_ANOMALY":"257.0958","ARG_OF_PERICENTER":"103.0204","FILE":"3880211","RA_OF_ASC_NODE":"356.5098","MEAN_MOTION_DOT":"0.00000645"},{"LAUNCH_DATE":"2022-08-28","REF_FRAME":"TEME","RCS_SIZE":"LARGE","TLE_LINE1":"1 53624U 22104AN  23094.88092075 -.00000864  00000-0 -36190-4 0  9999","PERIOD":"95.438","COUNTRY_CODE":"US","SITE":"AFETR","ELEMENT_SET_NO":"999","OBJECT_TYPE":"PAYLOAD","MEAN_MOTION_DDOT":"0.0000000000000","SEMIMAJOR_AXIS":"6917.882","EPOCH":"2023-04-04T21:08:31.552800","CENTER_NAME":"EARTH","ECCENTRICITY":"0.00011510","NORAD_CAT_ID":"53624","OBJECT_ID":"2022-104AN","MEAN_MOTION":"15.08839417","APOAPSIS":"540.543","OBJECT_NAME":"STARLINK-4596","PERIAPSIS":"538.951","RA_OF_ASC_NODE":"356.4368","MEAN_MOTION_DOT":"-0.00000864","MEAN_ANOMALY":"258.3198","ARG_OF_PERICENTER":"101.7923","FILE":"3880211","TLE_LINE2":"2 53624  53.2176 356.4368 0001151 101.7923 258.3198 15.08839417 34247","MEAN_ELEMENT_THEORY":"SGP4","CLASSIFICATION_TYPE":"U","INCLINATION":"53.2176","TIME_SYSTEM":"UTC","GP_ID":"229497989","BSTAR":"-0.00003619000000","DECAY_DATE":null,"EPHEMERIS_TYPE":"0","REV_AT_EPOCH":"3424"},{"REF_FRAME":"TEME","RCS_SIZE":"LARGE","LAUNCH_DATE":"2022-08-28","TLE_LINE1":"1 53625U 22104AP  23094.88460549  .00023120  00000-0  14654-2 0  9992","PERIOD":"95.437","COUNTRY_CODE":"US","ELEMENT_SET_NO":"999","OBJECT_TYPE":"PAYLOAD","SITE":"AFETR","EPOCH":"2023-04-04T21:13:49.914336","CENTER_NAME":"EARTH","ECCENTRICITY":"0.00011840","MEAN_MOTION_DDOT":"0.0000000000000","SEMIMAJOR_AXIS":"6917.834","NORAD_CAT_ID":"53625","OBJECT_ID":"2022-104AP","MEAN_MOTION":"15.08855260","PERIAPSIS":"538.880","OBJECT_NAME":"STARLINK-4603","APOAPSIS":"540.518","RA_OF_ASC_NODE":"356.4640","MEAN_MOTION_DOT":"0.00023120","FILE":"3880211","MEAN_ANOMALY":"275.0702","ARG_OF_PERICENTER":"85.0425","INCLINATION":"53.2169","CLASSIFICATION_TYPE":"U","TLE_LINE2":"2 53625  53.2169 356.4640 0001184  85.0425 275.0702 15.08855260 34241","MEAN_ELEMENT_THEORY":"SGP4","BSTAR":"0.00146540000000","TIME_SYSTEM":"UTC","GP_ID":"229498493","DECAY_DATE":null,"REV_AT_EPOCH":"3424","EPHEMERIS_TYPE":"0"},{"EPHEMERIS_TYPE":"0","REV_AT_EPOCH":"3356","DECAY_DATE":null,"BSTAR":"-0.00006512400000","GP_ID":"229471858","TIME_SYSTEM":"UTC","CLASSIFICATION_TYPE":"U","INCLINATION":"53.2180","TLE_LINE2":"2 53626  53.2180 356.3668 0001162 102.7821 257.3301 15.08843619 33564","MEAN_ELEMENT_THEORY":"SGP4","FILE":"3880124","ARG_OF_PERICENTER":"102.7821","MEAN_ANOMALY":"257.3301","MEAN_MOTION_DOT":"-0.00001324","RA_OF_ASC_NODE":"356.3668","OBJECT_NAME":"STARLINK-4554","PERIAPSIS":"538.930","APOAPSIS":"540.538","MEAN_MOTION":"15.08843619","OBJECT_ID":"2022-104AQ","NORAD_CAT_ID":"53626","ECCENTRICITY":"0.00011620","EPOCH":"2023-04-04T20:52:36.329952","CENTER_NAME":"EARTH","SEMIMAJOR_AXIS":"6917.869","MEAN_MOTION_DDOT":"0.0000000000000","OBJECT_TYPE":"PAYLOAD","ELEMENT_SET_NO":"999","SITE":"AFETR","COUNTRY_CODE":"US","PERIOD":"95.437","TLE_LINE1":"1 53626U 22104AQ  23094.86986493 -.00001324  00000-0 -65124-4 0  9996","RCS_SIZE":"LARGE","REF_FRAME":"TEME","LAUNCH_DATE":"2022-08-28"},{"OBJECT_ID":"2022-104AR","SEMIMAJOR_AXIS":"6917.879","MEAN_MOTION_DDOT":"0.0000000000000","ECCENTRICITY":"0.00013290","CENTER_NAME":"EARTH","EPOCH":"2023-04-04T21:03:13.491072","NORAD_CAT_ID":"53627","COUNTRY_CODE":"US","SITE":"AFETR","OBJECT_TYPE":"PAYLOAD","ELEMENT_SET_NO":"999","LAUNCH_DATE":"2022-08-28","RCS_SIZE":"LARGE","REF_FRAME":"TEME","PERIOD":"95.438","TLE_LINE1":"1 53627U 22104AR  23094.87723948 -.00001931  00000-0 -10326-3 0  9999","DECAY_DATE":null,"REV_AT_EPOCH":"3425","EPHEMERIS_TYPE":"0","TLE_LINE2":"2 53627  53.2175 356.4147 0001329  94.2166 265.8978 15.08840613 34256","MEAN_ELEMENT_THEORY":"SGP4","CLASSIFICATION_TYPE":"U","INCLINATION":"53.2175","GP_ID":"229498994","TIME_SYSTEM":"UTC","BSTAR":"-0.00010326000000","MEAN_MOTION_DOT":"-0.00001931","RA_OF_ASC_NODE":"356.4147","ARG_OF_PERICENTER":"94.2166","MEAN_ANOMALY":"265.8978","FILE":"3880211","MEAN_MOTION":"15.08840613","APOAPSIS":"540.663","PERIAPSIS":"538.824","OBJECT_NAME":"STARLINK-4595"},{"EPHEMERIS_TYPE":"0","REV_AT_EPOCH":"3426","DECAY_DATE":null,"TIME_SYSTEM":"UTC","GP_ID":"229497990","BSTAR":"0.00073401000000","MEAN_ELEMENT_THEORY":"SGP4","TLE_LINE2":"2 53628  53.2183 356.0278 0000560 108.3780 251.7273 15.08827801 34269","INCLINATION":"53.2183","CLASSIFICATION_TYPE":"U","MEAN_ANOMALY":"251.7273","ARG_OF_PERICENTER":"108.3780","FILE":"3880211","MEAN_MOTION_DOT":"0.00011409","RA_OF_ASC_NODE":"356.0278","APOAPSIS":"540.170","OBJECT_NAME":"STARLINK-4600","PERIAPSIS":"539.395","MEAN_MOTION":"15.08827801","OBJECT_ID":"2022-104AS","NORAD_CAT_ID":"53628","SEMIMAJOR_AXIS":"6917.918","MEAN_MOTION_DDOT":"0.0000000000000","ECCENTRICITY":"0.00005600","EPOCH":"2023-04-04T22:17:23.993088","CENTER_NAME":"EARTH","SITE":"AFETR","OBJECT_TYPE":"PAYLOAD","ELEMENT_SET_NO":"999","COUNTRY_CODE":"US","PERIOD":"95.438","TLE_LINE1":"1 53628U 22104AS  23094.92874992  .00011409  00000-0  73401-3 0  9994","LAUNCH_DATE":"2022-08-28","RCS_SIZE":"LARGE","REF_FRAME":"TEME"},{"RA_OF_ASC_NODE":"356.3941","MEAN_MOTION_DOT":"-0.00001721","FILE":"3880124","MEAN_ANOMALY":"263.1829","ARG_OF_PERICENTER":"96.9290","MEAN_MOTION":"15.08839330","PERIAPSIS":"538.980","OBJECT_NAME":"STARLINK-4602","APOAPSIS":"540.515","DECAY_DATE":null,"REV_AT_EPOCH":"3356","EPHEMERIS_TYPE":"0","CLASSIFICATION_TYPE":"U","INCLINATION":"53.2180","TLE_LINE2":"2 53629  53.2180 356.3941 0001110  96.9290 263.1829 15.08839330 33563","MEAN_ELEMENT_THEORY":"SGP4","BSTAR":"-0.00009010500000","TIME_SYSTEM":"UTC","GP_ID":"229471860","COUNTRY_CODE":"US","ELEMENT_SET_NO":"999","OBJECT_TYPE":"PAYLOAD","SITE":"AFETR","REF_FRAME":"TEME","RCS_SIZE":"LARGE","LAUNCH_DATE":"2022-08-28","TLE_LINE1":"1 53629U 22104AT  23094.87355454 -.00001721  00000-0 -90105-4 0  9995","PERIOD":"95.438","OBJECT_ID":"2022-104AT","EPOCH":"2023-04-04T20:57:55.112256","CENTER_NAME":"EARTH","ECCENTRICITY":"0.00011100","MEAN_MOTION_DDOT":"0.0000000000000","SEMIMAJOR_AXIS":"6917.882","NORAD_CAT_ID":"53629"},{"REV_AT_EPOCH":"3456","EPHEMERIS_TYPE":"0","DECAY_DATE":null,"GP_ID":"229498243","TIME_SYSTEM":"UTC","BSTAR":"0.00047230000000","TLE_LINE2":"2 53630  53.2171 346.6256 0001007 118.9767 241.1326 15.08837765 34564","MEAN_ELEMENT_THEORY":"SGP4","CLASSIFICATION_TYPE":"U","INCLINATION":"53.2171","ARG_OF_PERICENTER":"118.9767","MEAN_ANOMALY":"241.1326","FILE":"3880211","MEAN_MOTION_DOT":"0.00007236","RA_OF_ASC_NODE":"346.6256","APOAPSIS":"540.449","OBJECT_NAME":"STARLINK-4598","PERIAPSIS":"539.056","MEAN_MOTION":"15.08837765","OBJECT_ID":"2022-104AU","NORAD_CAT_ID":"53630","SEMIMAJOR_AXIS":"6917.887","MEAN_MOTION_DDOT":"0.0000000000000","ECCENTRICITY":"0.00010070","EPOCH":"2023-04-04T21:46:59.911968","CENTER_NAME":"EARTH","SITE":"AFETR","OBJECT_TYPE":"PAYLOAD","ELEMENT_SET_NO":"999","COUNTRY_CODE":"US","PERIOD":"95.438","TLE_LINE1":"1 53630U 22104AU  23094.90763787  .00007236  00000-0  47230-3 0  9998","LAUNCH_DATE":"2022-08-28","RCS_SIZE":"LARGE","REF_FRAME":"TEME"}];
